DELTA 2 R/B             
1 25876U 99041E   19226.79338493 -.00000104  00000-0  23080-4 0  9990
2 25876  51.7646  84.7851 0531226 166.8918 194.6456 14.04339725 25415
HELIOS 1B               
1 25977U 99064A   19226.90966757  .00000010  00000-0  82920-5 0  9994
2 25977  98.2394   6.8601 0000390 162.8431 197.2794 14.82429505329558
TERRA                   
1 25994U 99068A   19227.35496001 -.00000025  00000-0  44036-5 0  9990
2 25994  98.2042 301.0291 0000895 104.5367 255.5930 14.57115918 45594
SL-16 R/B               
1 26070U 00006B   19227.17882863  .00000241  00000-0  14763-3 0  9996
2 26070  71.0023  98.9523 0018305 236.0587 123.8796 14.15458864  9117
TITAN 4B R/B            
1 26474U 00047B   19227.21731583 -.00000065  00000-0  53411-5 0  9996
2 26474  67.9928 201.3072 0055869 180.6800 179.4277 14.95846753 33372
ENVISAT                 
1 27386U 02009A   19227.06717971 -.00000002  00000-0  12678-4 0  9997
2 27386  98.1476 245.1541 0001429  89.7218 288.9475 14.37954672914449
IDEFIX & ARIANE 42P R/B 
1 27422U 02021B   19227.41158319 -.00000031  00000-0  40257-5 0  9993
2 27422  98.3046 196.9788 0013433  61.3689 298.8843 14.29274720899415
AQUA                    
1 27424U 02022A   19227.23578243  .00000019  00000-0  14269-4 0  9996
2 27424  98.2050 167.2204 0000782 168.3846 185.3930 14.57110084919177
CZ-4B R/B               
1 27432U 02024C   19227.41113066 -.00000030  00000-0  84497-5 0  9990
2 27432  99.0724 219.6144 0049881 323.6512 163.8024 14.14082540890336
MIDORI II (ADEOS-II)    
1 27597U 02056A   19226.88519111 -.00000001  00000-0  17042-4 0  9997
2 27597  98.4758 177.9325 0001544 121.0877 239.0456 14.27407304867931
H-2A R/B                
1 27601U 02056E   19226.73117021  .00000035  00000-0  27304-4 0  9999
2 27601  98.2709 272.6135 0073368 113.3807 358.4478 14.31903879870659
CZ-4B R/B               
1 28059U 03049C   19227.31141063 -.00000021  00000-0  68474-5 0  9998
2 28059  98.4898 135.3124 0050154 358.9594   1.1488 14.52568524838226
CZ-2C R/B               
1 28222U 04012C   19226.89177307  .00000260  00000-0  19661-4 0  9990
2 28222  97.6302 184.5684 0047570   4.9578  54.7978 15.10126355839578
SL-16 R/B               
1 28353U 04021B   19227.37555321  .00000219  00000-0  13987-3 0  9993
2 28353  70.9993 223.3534 0002993  72.7663 287.3787 14.14226960783731
CZ-4B R/B               
1 28415U 04035C   19226.70112239 -.00000107  00000-0 -25600-5 0  9995
2 28415  97.6575 265.8575 0050672 322.3138  37.4543 15.06717201817294
CZ-2C R/B               
1 28480U 04046B   19226.75276338 -.00000034  00000-0  20936-5 0  9990
2 28480  98.1257 279.7909 0142951  55.9794  52.7721 14.25704967766592
ARIANE 5 R/B            
1 28499U 04049H   19226.83257708  .00000006  00000-0  81249-5 0  9994
2 28499  98.0530 322.7536 0092111 186.7170 286.2752 14.79976405790630
CZ-2D R/B               
1 28738U 05024B   19226.89921355  .00000217  00000-0  16343-4 0  9992
2 28738  97.4118 254.1780 0012610 158.8102 201.3654 15.11847088774936
SUZAKU (ASTRO-EII)      
1 28773U 05025A   19227.34114699  .00000423  00000-0  16484-4 0  9993
2 28773  31.3813 212.9673 0004486 356.5701   3.4915 15.17137784777251
ALOS (DAICHI)           
1 28931U 06002A   19227.32742505  .00000089  00000-0  26114-4 0  9995
2 28931  97.8218 223.5961 0001841  31.7112 328.4201 14.62629149722800
H-2A R/B                
1 28932U 06002B   19226.91363896 -.00000064  00000-0  71930-6 0  9994
2 28932  98.2852 195.3037 0087632 247.5658 169.1196 14.92015819735289
AKARI (ASTRO-F)         
1 28939U 06005A   19227.37532836  .00001746  00000-0  50781-4 0  9993
2 28939  98.1923 162.4275 0095912 318.4385  40.9590 15.32758082733854
RESURS-DK 1             
1 29228U 06021A   19227.37308937 -.00000001  00000-0  73415-5 0  9990
2 29228  69.9340 249.6943 0006893 235.3626 124.6885 15.02455679726627
GENESIS 1               
1 29252U 06029A   19227.34115214  .00000189  00000-0  19470-4 0  9992
2 29252  64.5115 225.8938 0043078 227.6683 132.0788 15.17797901721564
CZ-4B R/B               
1 29507U 06046C   19226.94052927  .00000852  00000-0  70856-4 0  9992
2 29507  97.7725 244.5591 0049244 117.4960 243.1281 15.00498468699250
CZ-2C R/B               
1 31114U 07010B   19226.65578026 -.00000039  00000-0  14311-6 0  9996
2 31114  98.3031  94.5000 0060921  83.8036 277.0077 14.19296628639365
COSMO-SKYMED 1          
1 31598U 07023A   19227.37232811 -.00000131  00000-0 -98651-5 0  9997
2 31598  97.8912  49.9322 0001314  97.6405 262.4943 14.82152803659344
GENESIS 2               
1 31789U 07028A   19227.25396342  .00000283  00000-0  24394-4 0  9999
2 31789  64.5032 267.0995 0051802 279.5360  79.9910 15.16975933668561
COSMOS 2428             
1 31792U 07029A   19227.40885283 -.00000271  00000-0 -12089-3 0  9994
2 31792  70.9379 197.3990 0006667 178.8709 181.2428 14.12452749625516
SL-16 R/B               
1 31793U 07029B   19227.21126898 -.00000176  00000-0 -66873-4 0  9999
2 31793  70.9748 171.7606 0002102 278.7658 180.1312 14.14414134626283
KORONAS-FOTON           
1 33504U 09003A   19227.35404490 -.00000111  00000-0 -75370-5 0  9999
2 33504  82.4439 168.3485 0017525 261.0222  98.9027 15.15445281580977
H-2A R/B                
1 38341U 12025E   19227.25018143  .00000055  00000-0  13982-4 0  9991
2 38341  98.4582 358.2078 0056519 138.5747 221.9771 14.83912916391894
CUSAT 2 & FALCON 9 R/B  
1 39271U 13055G   19227.17498309  .00004476  00000-0  10876-3 0  9994
2 39271  80.9642 236.8147 0599588  12.5339 349.0027 14.45423026306309
SL-4 R/B                
1 39679U 14021B   19226.92826836 -.00000195  00000-0  90131-5 0  9991
2 39679  51.6171  94.2449 0172405 320.5232  38.3280 15.06132980292670
ALOS-2                  
1 39766U 14029A   19227.32271079 -.00000065  00000-0 -17994-5 0  9997
2 39766  97.9232 323.3246 0001302  92.3611 267.7749 14.79469913282283
SL-27 R/B               
1 40354U 14084B   19227.17276687  .00000365  00000-0  10361-4 0  9997
2 40354  74.7388 303.5727 0039469 287.5264  72.1636 15.39764758261231
ASTRO-H (HITOMI)        
1 41337U 16012A   19226.94942030  .00000162  00000-0  61718-5 0  9996
2 41337  31.0049 159.3414 0012550 272.2893  87.6305 14.98596803191339
SHENZHOU-11 MODULE      
1 41868U 16061G   19226.46667027  .00010366  00000-0  52731-4 0  9997
2 41868  42.7921 249.8756 0006074  99.5912  44.2043 15.81553275157098
HXMT (HUIYAN)           
1 42758U 17034A   19227.34161317  .00000053  00000-0  17097-4 0  9994
2 42758  43.0192 280.5310 0011944 258.4074 200.9603 15.08630838119480
SAOCOM 1A               
1 43641U 18076A   19227.38049728 -.00000001  00000-0  63972-5 0  9996
2 43641  97.8885  52.8944 0001283  79.4036 280.7316 14.82159699 46113
